NORAD_CAT_ID,OBJECT_NAME,OBJECT_TYPE,EPOCH,MEAN_MOTION,ECCENTRICITY,INCLINATION,RA_OF_ASC_NODE,ARG_OF_PERICENTER,MEAN_ANOMALY,BSTAR,MEAN_MOTION_DOT,MEAN_MOTION_DDOT,TLE_LINE0,TLE_LINE1,TLE_LINE2,SEMIMAJOR_AXIS,PERIOD,APOGEE,PERIGEE,DECAYED
49179.0,STARLINK-3043,PAYLOAD,2021-09-20 14:00:01,15.89470444,0.0044101,70.0004,108.9628,158.1959,119.7683,-0.0039517,-0.0125472,0.00044829,0 STARLINK-3043,1 49179U 21082BB  21263.58334491 -.01254720  44829-3 -39517-2 0  9994,2 49179  70.0004 108.9628 0044101 158.1959 119.7683 15.89470444  1119,6681.904,90.596,333.236,274.301,0.0
49179.0,STARLINK-3043,PAYLOAD,2021-09-20 20:00:01,15.88860779,0.0041076,70.0002,108.2397,158.2499,109.5134,-0.0040888,-0.01243692,0.00043847,0 STARLINK-3043,1 49179U 21082BB  21263.83334491 -.01243692  43847-3 -40888-2 0  9990,2 49179  70.0002 108.2397 0041076 158.2499 109.5134 15.88860779  1156,6683.613,90.631,332.931,278.024,0.0
49179.0,STARLINK-3043,PAYLOAD,2021-09-20 22:00:00,15.88666226,0.0040082,70.0001,107.9988,158.5649,225.6738,-0.004186,-0.01256017,0.0004457,0 STARLINK-3043,1 49179U 21082BB  21263.91667824 -.01256017  44570-3 -41860-2 0  9998,2 49179  70.0001 107.9988 0040082 158.5649 225.6738 15.88666226  1390,6684.158,90.642,332.815,279.232,0.0
49179.0,STARLINK-3043,PAYLOAD,2021-09-21 04:00:00,15.88065809,0.0038045,69.9998,107.2764,159.3446,213.9661,-0.0043681,-0.01262276,0.00044725,0 STARLINK-3043,1 49179U 21082BB  21264.16667824 -.01262276  44725-3 -43681-2 0  9995,2 49179  69.9998 107.2764 0038045 159.3446 213.9661 15.88065809  1202,6685.843000000003,90.676,333.144,282.272,0.0
49179.0,STARLINK-3043,PAYLOAD,2021-09-21 12:00:00,15.87232915,0.0034243,70.0001,106.3144,159.6257,318.2811,-0.0043961,-0.01204412,0.00040692,0 STARLINK-3043,1 49179U 21082BB  21264.50001157 -.01204412  40692-3 -43961-2 0  9992,2 49179  70.0001 106.3144 0034243 159.6257 318.2811 15.87232915  1255,6688.182,90.724,332.949,287.144,0.0
49179.0,STARLINK-3043,PAYLOAD,2021-09-21 14:00:01,15.8704419,0.003363,70.0003,106.074,159.8922,74.0717,-0.0045332,-0.01227948,0.00042098,0 STARLINK-3043,1 49179U 21082BB  21264.58335648 -.01227948  42098-3 -45332-2 0  9990,2 49179  70.0003 106.0740 0033630 159.8922  74.0717 15.87044190  1490,6688.712,90.735,333.071,288.083,0.0
49179.0,STARLINK-3043,PAYLOAD,2021-09-21 20:00:01,15.86433423,0.0031254,70.0,105.3536,160.3873,61.2052,-0.0046523,-0.01214822,0.00041036,0 STARLINK-3043,1 49179U 21082BB  21264.83335648 -.01214822  41036-3 -46523-2 0  9999,2 49179  70.0000 105.3536 0031254 160.3873  61.2052 15.86433423  1315,6690.429,90.77,333.204,291.383,0.0
49179.0,STARLINK-3043,PAYLOAD,2021-09-21 22:00:00,15.8625991,0.0030362,70.0001,105.1135,161.092,176.1793,-0.0049247,-0.01271573,0.00044575,0 STARLINK-3043,1 49179U 21082BB  21264.91667824 -.01271573  44575-3 -49247-2 0  9995,2 49179  70.0001 105.1135 0030362 161.0920 176.1793 15.86259910  1549,6690.916,90.78,333.096,292.467,0.0
49179.0,STARLINK-3043,PAYLOAD,2021-09-22 06:00:02,15.85433959,0.0027362,69.9998,104.1538,162.8801,276.8802,-0.0049835,-0.01227409,0.00041441,0 STARLINK-3043,1 49179U 21082BB  21265.25002315 -.01227409  41441-3 -49835-2 0  9992,2 49179  69.9998 104.1538 0027362 162.8801 276.8802 15.85433959  1376,6693.24,90.827,333.4190000000001,296.791,0.0
49179.0,STARLINK-3043,PAYLOAD,2021-09-22 12:00:00,15.84833159,0.0024536,69.9998,103.4351,163.9439,261.9278,-0.005188,-0.01233755,0.00041609,0 STARLINK-3043,1 49179U 21082BB  21265.50001157 -.01233755  41609-3 -51880-2 0  9993,2 49179  69.9998 103.4351 0024536 163.9439 261.9278 15.84833159  1412,6694.932,90.861,333.223,300.37,0.0
49179.0,STARLINK-3043,PAYLOAD,2021-09-22 14:00:01,15.84619238,0.0023841,70.0002,103.1956,164.1605,16.9872,-0.0051213,-0.01204046,0.00039698,0 STARLINK-3043,1 49179U 21082BB  21265.58334491 -.01204046  39698-3 -51213-2 0  9997,2 49179  70.0002 103.1956 0023841 164.1605  16.9872 15.84619238  1659,6695.534000000002,90.874,333.362,301.436,0.0
49179.0,STARLINK-3043,PAYLOAD,2021-09-22 20:00:01,15.84012344,0.0021342,69.9999,102.4776,166.2226,0.3816,-0.0052745,-0.01074549,0.0,0 STARLINK-3043,1 49179U 21082BB  21265.83334491 -.01074549  00000-0 -52745-2 0  9991,2 49179  69.9999 102.4776 0021342 166.2226   0.3816 15.84012344  1468,6697.244000000002,90.908,333.402,304.816,0.0
49179.0,STARLINK-3043,PAYLOAD,2021-09-23 06:00:02,15.83037163,0.0018424,69.9998,101.2821,171.3419,209.8698,-0.0058479,-0.01123928,0.0,0 STARLINK-3043,1 49179U 21082BB  21266.25002315 -.01123928  00000-0 -58479-2 0  9991,2 49179  69.9998 101.2821 0018424 171.3419 209.8698 15.83037163  1530,6699.994000000002,90.964,334.2030000000001,309.515,0.0
49179.0,STARLINK-3043,PAYLOAD,2021-09-23 14:00:01,15.82206911,0.0014585,70.0003,100.3272,176.6493,303.061,-0.00584,-0.01077659,0.0,0 STARLINK-3043,1 49179U 21082BB  21266.58334491 -.01077659  00000-0 -58400-2 0  9993,2 49179  70.0003 100.3272 0014585 176.6493 303.0610 15.82206911  1814,6702.3380000000025,91.012,333.978,314.428,0.0
49179.0,STARLINK-3043,PAYLOAD,2021-09-23 20:00:01,15.8160862,0.0012614,70.0001,99.6119,182.8375,280.2209,-0.0060758,-0.01085872,0.0,0 STARLINK-3043,1 49179U 21082BB  21266.83335648 -.01085872  00000-0 -60758-2 0  9991,2 49179  70.0001  99.6119 0012614 182.8375 280.2209 15.81608620  1622,6704.028,91.047,334.35,317.437,0.0
49179.0,STARLINK-3043,PAYLOAD,2021-09-23 22:00:01,15.81409354,0.0012112,70.0001,99.3734,184.7062,32.6586,-0.0061466,-0.01087382,0.0,0 STARLINK-3043,1 49179U 21082BB  21266.91668981 -.01087382  00000-0 -61466-2 0  9994,2 49179  70.0001  99.3734 0012112 184.7062  32.6586 15.81409354  1865,6704.590999999999,91.058,334.577,318.336,0.0
49179.0,STARLINK-3043,PAYLOAD,2021-09-24 14:00:01,15.79813086,0.0008591,70.0002,97.4692,215.8212,193.7618,-0.0067798999999999,-0.01126358,0.0,0 STARLINK-3043,1 49179U 21082BB  21267.58334491 -.01126358  00000-0 -67799-2 0  9996,2 49179  70.0002  97.4692 0008591 215.8212 193.7618 15.79813086  1972,6709.107,91.15,336.736,325.208,0.0
49179.0,STARLINK-3043,PAYLOAD,2021-09-24 22:00:00,15.78998323,0.0007937,70.0,96.5188,226.9438,277.3395,-0.006919,-0.01108695,0.0,0 STARLINK-3043,1 49179U 21082BB  21267.91667824 -.01108695  00000-0 -69190-2 0  9993,2 49179  70.0000  96.5188 0007937 226.9438 277.3395 15.78998323  1794,6711.415,91.197,338.606,327.9530000000001,0.0
49179.0,STARLINK-3043,PAYLOAD,2021-09-25 06:00:02,15.78201431,0.0008336,69.9999,95.5694,228.4313,9.6471,-0.0072629999999999,-0.01121489,0.0,0 STARLINK-3043,1 49179U 21082BB  21268.25002315 -.01121489  00000-0 -72630-2 0  9998,2 49179  69.9999  95.5694 0008336 228.4313   9.6471 15.78201431  2083,6713.674,91.243,341.135,329.94199999999995,0.0
49179.0,STARLINK-3043,PAYLOAD,2021-09-25 14:00:01,15.77397533,0.0008081,70.0002,94.6213,228.6433,102.1361,-0.0075295,-0.01121106,0.0,0 STARLINK-3043,1 49179U 21082BB  21268.58334491 -.01121106  00000-0 -75295-2 0  9993,2 49179  70.0002  94.6213 0008081 228.6433 102.1361 15.77397533  1905,6715.954000000002,91.29,343.247,332.392,0.0
49179.0,STARLINK-3043,PAYLOAD,2021-09-26 00:00:00,15.76384872,0.0008334,69.9999,93.4374,229.9169,305.4673,-0.007787,-0.01109754,0.0,0 STARLINK-3043,1 49179U 21082BB  21269.00001157 -.01109754  00000-0 -77870-2 0  9997,2 49179  69.9999  93.4374 0008334 229.9169 305.4673 15.76384872  2190,6718.83,91.348,346.295,335.096,0.0
49179.0,STARLINK-3043,PAYLOAD,2021-09-26 06:00:00,15.75791097,0.0004377,70.0,92.7281,277.4848,235.9338,-0.008134,-0.01124055,0.0,0 STARLINK-3043,1 49179U 21082BB  21269.25001157 -.01124055  00000-0 -81340-2 0  9992,2 49179  70.0000  92.7281 0004377 277.4848 235.9338 15.75791097  2005,6720.518,91.383,345.325,339.441,0.0
49179.0,STARLINK-3043,PAYLOAD,2021-09-26 14:00:01,15.74980459,0.000392,70.0003,91.7836,287.8705,315.4225,-0.0083331,-0.01112307,0.0,0 STARLINK-3043,1 49179U 21082BB  21269.58334491 -.01112307  00000-0 -83331-2 0  9997,2 49179  70.0003  91.7836 0003920 287.8705 315.4225 15.74980459  2294,6722.824000000001,91.43,347.324,342.05300000000005,0.0
49179.0,STARLINK-3043,PAYLOAD,2021-09-26 22:00:01,15.74176424,0.0003678,70.0,90.8399,265.7167,66.5497,-0.0086401,-0.01113288,0.0,0 STARLINK-3043,1 49179U 21082BB  21269.91668981 -.01113288  00000-0 -86401-2 0  9998,2 49179  70.0000  90.8399 0003678 265.7167  66.5497 15.74176424  2342,6725.113,91.476,349.451,344.504,0.0
49179.0,STARLINK-3043,PAYLOAD,2021-09-27 06:00:02,15.73369798,0.0003702,69.9999,89.8973,262.3743,157.8362,-0.0089184,-0.01110112,0.0,0 STARLINK-3043,1 49179U 21082BB  21270.25002315 -.01110112  00000-0 -89184-2 0  9994,2 49179  69.9999  89.8973 0003702 262.3743 157.8362 15.73369798  2165,6727.411,91.523,351.767,346.786,0.0
49179.0,STARLINK-3043,PAYLOAD,2021-09-27 14:00:01,15.72565962,0.0003501,70.0002,88.9559,276.5617,230.5611,-0.0092333,-0.01110174,0.0,0 STARLINK-3043,1 49179U 21082BB  21270.58334491 -.01110174  00000-0 -92333-2 0  9991,2 49179  70.0002  88.9559 0003501 276.5617 230.5611 15.72565962  2455,6729.703,91.57,353.925,349.212,0.0
49179.0,STARLINK-3043,PAYLOAD,2021-09-27 22:00:01,15.71759813,0.0003398,70.0001,88.0154,271.4737,321.7287,-0.0095302,-0.01107415,0.0,0 STARLINK-3043,1 49179U 21082BB  21270.91668981 -.01107415  00000-0 -95302-2 0  9995,2 49179  70.0001  88.0154 0003398 271.4737 321.7287 15.71759813  2278,6732.004,91.617,356.157,351.582,0.0
49179.0,STARLINK-3043,PAYLOAD,2021-09-28 14:00:01,15.69916105,0.0003563,70.0003,86.1385,272.0167,130.2863,-0.0021974,-0.00256463,0.0,0 STARLINK-3043,1 49179U 21082BB  21271.58334491 -.00256463  00000-0 -21974-2 0  9996,2 49179  70.0003  86.1385 0003563 272.0167 130.2863 15.69916105  2373,6737.274,91.725,361.54,356.73900000000015,0.0
49179.0,STARLINK-3043,PAYLOAD,2021-09-28 22:00:00,15.6974415,0.0003488,70.0,85.2013,274.3673,211.1492,4.5113e-05,5.175e-05,0.0,0 STARLINK-3043,1 49179U 21082BB  21271.91667824  .00005175  00000-0  45113-4 0  9995,2 49179  70.0000  85.2013 0003488 274.3673 211.1492 15.69744150  2423,6737.766,91.735,361.981,357.281,0.0
